[{"OBJECT_NAME":"STARLINK-36562","OBJECT_ID":"2026-016K","EPOCH":"2026-03-24T06:00:02.000160","MEAN_MOTION":15.5607972,"ECCENTRICITY":0.00013312,"INCLINATION":97.2841,"RA_OF_ASC_NODE":144.422,"ARG_OF_PERICENTER":80.6359,"MEAN_ANOMALY":254.7469,"EPHEMERIS_TYPE":0,"CLASSIFICATION_TYPE":"U","NORAD_CAT_ID":67570,"ELEMENT_SET_NO":999,"REV_AT_EPOCH":605,"BSTAR":-0.031296762,"MEAN_MOTION_DOT":-0.01922796,"MEAN_MOTION_DDOT":0},{"OBJECT_NAME":"STARLINK-36578","OBJECT_ID":"2026-016L","EPOCH":"2026-03-24T06:00:02.000160","MEAN_MOTION":15.57006009,"ECCENTRICITY":0.00017263,"INCLINATION":97.2847,"RA_OF_ASC_NODE":144.3347,"ARG_OF_PERICENTER":64.4346,"MEAN_ANOMALY":63.6378,"EPHEMERIS_TYPE":0,"CLASSIFICATION_TYPE":"U","NORAD_CAT_ID":67571,"ELEMENT_SET_NO":999,"REV_AT_EPOCH":589,"BSTAR":-0.030378077,"MEAN_MOTION_DOT":-0.01931206,"MEAN_MOTION_DDOT":0},{"OBJECT_NAME":"STARLINK-36350","OBJECT_ID":"2026-016M","EPOCH":"2026-03-24T06:00:02.000160","MEAN_MOTION":15.57338231,"ECCENTRICITY":0.0001933,"INCLINATION":97.2844,"RA_OF_ASC_NODE":144.3528,"ARG_OF_PERICENTER":68.1727,"MEAN_ANOMALY":108.9958,"EPHEMERIS_TYPE":0,"CLASSIFICATION_TYPE":"U","NORAD_CAT_ID":67572,"ELEMENT_SET_NO":999,"REV_AT_EPOCH":599,"BSTAR":-0.030042948,"MEAN_MOTION_DOT":-0.0193369,"MEAN_MOTION_DDOT":0},{"OBJECT_NAME":"STARLINK-36588","OBJECT_ID":"2026-016N","EPOCH":"2026-03-24T06:00:02.000160","MEAN_MOTION":15.57691278,"ECCENTRICITY":0.00018772,"INCLINATION":97.2846,"RA_OF_ASC_NODE":144.3478,"ARG_OF_PERICENTER":75.9107,"MEAN_ANOMALY":94.1667,"EPHEMERIS_TYPE":0,"CLASSIFICATION_TYPE":"U","NORAD_CAT_ID":67573,"ELEMENT_SET_NO":999,"REV_AT_EPOCH":599,"BSTAR":-0.030669608,"MEAN_MOTION_DOT":-0.01992217,"MEAN_MOTION_DDOT":0},{"OBJECT_NAME":"STARLINK-36594","OBJECT_ID":"2026-016P","EPOCH":"2026-03-24T06:00:02.000160","MEAN_MOTION":15.55693759,"ECCENTRICITY":0.00013722,"INCLINATION":97.284,"RA_OF_ASC_NODE":144.4241,"ARG_OF_PERICENTER":73.4763,"MEAN_ANOMALY":267.5814,"EPHEMERIS_TYPE":0,"CLASSIFICATION_TYPE":"U","NORAD_CAT_ID":67574,"ELEMENT_SET_NO":999,"REV_AT_EPOCH":604,"BSTAR":-0.031693696,"MEAN_MOTION_DOT":-0.01919884,"MEAN_MOTION_DDOT":0},{"OBJECT_NAME":"STARLINK-36400","OBJECT_ID":"2026-016Q","EPOCH":"2026-03-24T06:00:02.000160","MEAN_MOTION":15.56956839,"ECCENTRICITY":0.0001838,"INCLINATION":97.284,"RA_OF_ASC_NODE":144.389,"ARG_OF_PERICENTER":80.3393,"MEAN_ANOMALY":179.033,"EPHEMERIS_TYPE":0,"CLASSIFICATION_TYPE":"U","NORAD_CAT_ID":67575,"ELEMENT_SET_NO":999,"REV_AT_EPOCH":595,"BSTAR":-0.03025903,"MEAN_MOTION_DOT":-0.01921483,"MEAN_MOTION_DDOT":0},{"OBJECT_NAME":"STARLINK-36591","OBJECT_ID":"2026-016R","EPOCH":"2026-03-24T06:00:02.000160","MEAN_MOTION":15.56612177,"ECCENTRICITY":0.00015985,"INCLINATION":97.2844,"RA_OF_ASC_NODE":144.414,"ARG_OF_PERICENTER":89.0674,"MEAN_ANOMALY":232.9405,"EPHEMERIS_TYPE":0,"CLASSIFICATION_TYPE":"U","NORAD_CAT_ID":67576,"ELEMENT_SET_NO":999,"REV_AT_EPOCH":589,"BSTAR":-0.030448402,"MEAN_MOTION_DOT":-0.01910071,"MEAN_MOTION_DDOT":0},{"OBJECT_NAME":"STARLINK-36590","OBJECT_ID":"2026-016S","EPOCH":"2026-03-24T06:00:02.000160","MEAN_MOTION":15.57163932,"ECCENTRICITY":0.0001854,"INCLINATION":97.2841,"RA_OF_ASC_NODE":144.3802,"ARG_OF_PERICENTER":80.6532,"MEAN_ANOMALY":159.7701,"EPHEMERIS_TYPE":0,"CLASSIFICATION_TYPE":"U","NORAD_CAT_ID":67577,"ELEMENT_SET_NO":999,"REV_AT_EPOCH":605,"BSTAR":-0.030337493,"MEAN_MOTION_DOT":-0.01939114,"MEAN_MOTION_DDOT":0},{"OBJECT_NAME":"STARLINK-36613","OBJECT_ID":"2026-016T","EPOCH":"2026-03-24T06:00:02.000160","MEAN_MOTION":15.47875213,"ECCENTRICITY":0.00018013,"INCLINATION":97.2841,"RA_OF_ASC_NODE":144.3914,"ARG_OF_PERICENTER":76.7828,"MEAN_ANOMALY":185.8619,"EPHEMERIS_TYPE":0,"CLASSIFICATION_TYPE":"U","NORAD_CAT_ID":67578,"ELEMENT_SET_NO":999,"REV_AT_EPOCH":606,"BSTAR":-0.040830255,"MEAN_MOTION_DOT":-0.01906067,"MEAN_MOTION_DDOT":0},{"OBJECT_NAME":"STARLINK-36571","OBJECT_ID":"2026-016U","EPOCH":"2026-03-24T06:00:02.000160","MEAN_MOTION":15.57386576,"ECCENTRICITY":0.00017451,"INCLINATION":97.2841,"RA_OF_ASC_NODE":144.37,"ARG_OF_PERICENTER":82.9264,"MEAN_ANOMALY":138.4934,"EPHEMERIS_TYPE":0,"CLASSIFICATION_TYPE":"U","NORAD_CAT_ID":67579,"ELEMENT_SET_NO":999,"REV_AT_EPOCH":605,"BSTAR":-0.031085696,"MEAN_MOTION_DOT":-0.01995622,"MEAN_MOTION_DDOT":0},{"OBJECT_NAME":"STARLINK-36612","OBJECT_ID":"2026-016V","EPOCH":"2026-03-24T06:00:02.000160","MEAN_MOTION":15.51770174,"ECCENTRICITY":0.00017439,"INCLINATION":97.2843,"RA_OF_ASC_NODE":144.4095,"ARG_OF_PERICENTER":76.6943,"MEAN_ANOMALY":234.1753,"EPHEMERIS_TYPE":0,"CLASSIFICATION_TYPE":"U","NORAD_CAT_ID":67580,"ELEMENT_SET_NO":999,"REV_AT_EPOCH":594,"BSTAR":-0.062501841,"MEAN_MOTION_DOT":-0.03261378,"MEAN_MOTION_DDOT":0},{"OBJECT_NAME":"STARLINK-36632","OBJECT_ID":"2026-016W","EPOCH":"2026-03-24T06:00:02.000160","MEAN_MOTION":15.55192094,"ECCENTRICITY":0.0001874,"INCLINATION":97.2846,"RA_OF_ASC_NODE":144.3854,"ARG_OF_PERICENTER":82.4023,"MEAN_ANOMALY":172.2088,"EPHEMERIS_TYPE":0,"CLASSIFICATION_TYPE":"U","NORAD_CAT_ID":67581,"ELEMENT_SET_NO":999,"REV_AT_EPOCH":605,"BSTAR":-0.032148435,"MEAN_MOTION_DOT":-0.01912906,"MEAN_MOTION_DDOT":0},{"OBJECT_NAME":"STARLINK-36609","OBJECT_ID":"2026-016X","EPOCH":"2026-03-24T06:00:02.000160","MEAN_MOTION":15.57198988,"ECCENTRICITY":0.00019136,"INCLINATION":97.2843,"RA_OF_ASC_NODE":144.3621,"ARG_OF_PERICENTER":75.8327,"MEAN_ANOMALY":121.2402,"EPHEMERIS_TYPE":0,"CLASSIFICATION_TYPE":"U","NORAD_CAT_ID":67582,"ELEMENT_SET_NO":999,"REV_AT_EPOCH":599,"BSTAR":-0.03012521,"MEAN_MOTION_DOT":-0.01929428,"MEAN_MOTION_DDOT":0},{"OBJECT_NAME":"STARLINK-36577","OBJECT_ID":"2026-016Y","EPOCH":"2026-03-24T06:00:02.000160","MEAN_MOTION":15.49233221,"ECCENTRICITY":0.00018105,"INCLINATION":97.2843,"RA_OF_ASC_NODE":144.3824,"ARG_OF_PERICENTER":72.0328,"MEAN_ANOMALY":175.9068,"EPHEMERIS_TYPE":0,"CLASSIFICATION_TYPE":"U","NORAD_CAT_ID":67583,"ELEMENT_SET_NO":999,"REV_AT_EPOCH":594,"BSTAR":-0.00081047674,"MEAN_MOTION_DOT":-0.00043994,"MEAN_MOTION_DDOT":0},{"OBJECT_NAME":"STARLINK-36419","OBJECT_ID":"2026-016Z","EPOCH":"2026-03-24T06:00:02.000160","MEAN_MOTION":15.53833847,"ECCENTRICITY":0.00015091,"INCLINATION":97.2841,"RA_OF_ASC_NODE":144.4121,"ARG_OF_PERICENTER":98.0363,"MEAN_ANOMALY":221.7762,"EPHEMERIS_TYPE":0,"CLASSIFICATION_TYPE":"U","NORAD_CAT_ID":67584,"ELEMENT_SET_NO":999,"REV_AT_EPOCH":599,"BSTAR":-0.034763667,"MEAN_MOTION_DOT":-0.01996978,"MEAN_MOTION_DDOT":0},{"OBJECT_NAME":"STARLINK-36560","OBJECT_ID":"2026-016AA","EPOCH":"2026-03-24T06:00:02.000160","MEAN_MOTION":15.49241276,"ECCENTRICITY":0.0001765,"INCLINATION":97.2844,"RA_OF_ASC_NODE":144.3817,"ARG_OF_PERICENTER":108.2481,"MEAN_ANOMALY":135.2288,"EPHEMERIS_TYPE":0,"CLASSIFICATION_TYPE":"U","NORAD_CAT_ID":67585,"ELEMENT_SET_NO":999,"REV_AT_EPOCH":604,"BSTAR":-0.041478323,"MEAN_MOTION_DOT":-0.02018179,"MEAN_MOTION_DDOT":0},{"OBJECT_NAME":"STARLINK-36641","OBJECT_ID":"2026-018A","EPOCH":"2026-03-24T06:00:02.000160","MEAN_MOTION":15.34309597,"ECCENTRICITY":0.00013157,"INCLINATION":97.2846,"RA_OF_ASC_NODE":149.1962,"ARG_OF_PERICENTER":79.5632,"MEAN_ANOMALY":214.2389,"EPHEMERIS_TYPE":0,"CLASSIFICATION_TYPE":"U","NORAD_CAT_ID":67589,"ELEMENT_SET_NO":999,"REV_AT_EPOCH":577,"BSTAR":-0.00058471767,"MEAN_MOTION_DOT":-0.00019425,"MEAN_MOTION_DDOT":0},{"OBJECT_NAME":"STARLINK-36376","OBJECT_ID":"2026-018B","EPOCH":"2026-03-24T06:00:02.000160","MEAN_MOTION":15.33387319,"ECCENTRICITY":9.352e-5,"INCLINATION":97.2839,"RA_OF_ASC_NODE":149.2805,"ARG_OF_PERICENTER":82.6348,"MEAN_ANOMALY":44.7906,"EPHEMERIS_TYPE":0,"CLASSIFICATION_TYPE":"U","NORAD_CAT_ID":67590,"ELEMENT_SET_NO":999,"REV_AT_EPOCH":599,"BSTAR":-0.00015520505,"MEAN_MOTION_DOT":-5.073e-5,"MEAN_MOTION_DDOT":0},{"OBJECT_NAME":"STARLINK-36391","OBJECT_ID":"2026-018C","EPOCH":"2026-03-24T04:39:49.559040","MEAN_MOTION":15.33454954,"ECCENTRICITY":0.00013134,"INCLINATION":97.2831,"RA_OF_ASC_NODE":149.1479,"ARG_OF_PERICENTER":79.215,"MEAN_ANOMALY":280.924,"EPHEMERIS_TYPE":0,"CLASSIFICATION_TYPE":"U","NORAD_CAT_ID":67591,"ELEMENT_SET_NO":999,"REV_AT_EPOCH":955,"BSTAR":0.00075586183,"MEAN_MOTION_DOT":0.00024414,"MEAN_MOTION_DDOT":0},{"OBJECT_NAME":"STARLINK-36603","OBJECT_ID":"2026-018D","EPOCH":"2026-03-24T06:00:02.000160","MEAN_MOTION":15.33469098,"ECCENTRICITY":0.00014123,"INCLINATION":97.2843,"RA_OF_ASC_NODE":149.2909,"ARG_OF_PERICENTER":79.996,"MEAN_ANOMALY":77.3993,"EPHEMERIS_TYPE":0,"CLASSIFICATION_TYPE":"U","NORAD_CAT_ID":67592,"ELEMENT_SET_NO":999,"REV_AT_EPOCH":594,"BSTAR":-0.00062878757,"MEAN_MOTION_DOT":-0.00020336,"MEAN_MOTION_DDOT":0},{"OBJECT_NAME":"STARLINK-36634","OBJECT_ID":"2026-018E","EPOCH":"2026-03-24T06:00:02.000160","MEAN_MOTION":15.33470454,"ECCENTRICITY":0.00011912,"INCLINATION":97.2842,"RA_OF_ASC_NODE":149.3049,"ARG_OF_PERICENTER":82.4314,"MEAN_ANOMALY":104.9527,"EPHEMERIS_TYPE":0,"CLASSIFICATION_TYPE":"U","NORAD_CAT_ID":67593,"ELEMENT_SET_NO":999,"REV_AT_EPOCH":604,"BSTAR":-0.00050094411,"MEAN_MOTION_DOT":-0.00016226,"MEAN_MOTION_DDOT":0},{"OBJECT_NAME":"STARLINK-36638","OBJECT_ID":"2026-018F","EPOCH":"2026-03-24T03:21:05.673600","MEAN_MOTION":15.34283691,"ECCENTRICITY":0.00017093,"INCLINATION":97.284,"RA_OF_ASC_NODE":149.0693,"ARG_OF_PERICENTER":108.0718,"MEAN_ANOMALY":252.0712,"EPHEMERIS_TYPE":0,"CLASSIFICATION_TYPE":"U","NORAD_CAT_ID":67594,"ELEMENT_SET_NO":999,"REV_AT_EPOCH":954,"BSTAR":0.00087088877,"MEAN_MOTION_DOT":0.00028904,"MEAN_MOTION_DDOT":0},{"OBJECT_NAME":"STARLINK-36628","OBJECT_ID":"2026-018G","EPOCH":"2026-03-24T06:00:02.000160","MEAN_MOTION":15.39013288,"ECCENTRICITY":0.00014317,"INCLINATION":97.2854,"RA_OF_ASC_NODE":149.2644,"ARG_OF_PERICENTER":60.3881,"MEAN_ANOMALY":21.8595,"EPHEMERIS_TYPE":0,"CLASSIFICATION_TYPE":"U","NORAD_CAT_ID":67595,"ELEMENT_SET_NO":999,"REV_AT_EPOCH":604,"BSTAR":-0.054864415,"MEAN_MOTION_DOT":-0.0189766,"MEAN_MOTION_DDOT":0}]
